#dP2024  5 22  0  0  0.00000000      96 __u+U IGS20 EXT  IAC
## 2315 259200.00000000   900.00000000 60452 0.0000000000000
+   53   G02G03G04G05G06G07G08G09G10G11G12G13G14G15G16G17G18
+        G19G20G21G22G23G24G25G26G27G28G29G30G31G32R01R02R03
+        R04R05R07R08R09R11R12R13R14R15R16R17R18R19R20R21R22
+        R24R25  0  0  0  0  0  0  0  0  0  0  0  0  0  0  0
+          0  0  0  0  0  0  0  0  0  0  0  0  0  0  0  0  0
++         8  7  8  9  7  7  8  8  8  9  8  9  9  8  7  9  7
++         8  9  7  8  8  8  7  9  7  7  7  8  8  7  7  7  7
++         7  7  8 10  7  8  7  8  8  8  8  8  6  9  9  7  7
++         7  7  0  0  0  0  0  0  0  0  0  0  0  0  0  0  0
++         0  0  0  0  0  0  0  0  0  0  0  0  0  0  0  0  0
%c M  cc GPS ccc cccc cccc cccc cccc ccccc ccccc ccccc ccccc
%c cc cc ccc ccc cccc cccc cccc cccc ccccc ccccc ccccc ccccc
%f  0.0000000  0.000000000  0.00000000000  0.000000000000000
%f  0.0000000  0.000000000  0.00000000000  0.000000000000000
%i    0    0    0    0      0      0      0      0         0
%i    0    0    0    0      0      0      0      0         0
/* IAC                                ULTRA-RAPID PREDICTION
/* S/V CLOCKS ARE ALIGNED TO GNSS TIME                      
/* G:C1WC2W R:C1PC2P E:C1XC5X C:C2IC6I J:C1CC2S             
/* PCV:IGS20_2290 OL/AL:FES2004  NONE     YN ORB:CoN CLK:CoN
*  2024 05 22 15  0  0.00000000
PG02  16416.280620   1964.756284  21323.627384   -431.619147
PG03  21217.633105 -10016.397933  12172.584391    376.341258
PG04  24700.297219     79.980289  -9925.949042    366.722816
PG05 -15873.125098  -3869.190168 -21136.573009   -173.619358
PG06  -4820.725318 -25895.209901   2961.384138    259.781296
PG07   8051.453052 -17604.914687 -17458.147844   -134.325370
PG08  26074.543822   6155.513771   -567.200475    191.723124
PG09  16194.177844  -9789.023034 -18739.024280    205.910914
PG10  -6454.447341  20880.478601  15067.300052    -27.683303
PG11 -11995.633313 -21513.927862  -9983.530080   -668.300383
PG12 -21743.228969   7073.529511  13187.797885   -507.576677
PG13 -21627.800608 -14091.580452  -6961.761284    652.427441
PG14  10122.067708 -21532.660584  11617.532187    407.011538
PG15 -26439.951149  -3411.000401  -1084.254389    161.817142
PG16  13442.199912   8384.686524 -21707.550870   -284.889825
PG17   2735.225003 -15073.979785  22108.098725    703.954513
PG18  -7590.217427  18290.378393 -17590.089957   -614.406166
PG19  -8010.528239 -16839.986343  18882.429219    485.662986
PG20  -8878.849887 -13478.456592 -21057.384315    375.659795
PG21  17424.269539   8370.947348  19073.323044    120.107718
PG22   3654.735153 -19659.894195  18043.881127    -17.139044
PG23 -15652.149809  20939.259768   4069.866654    231.764847
PG24 -17157.871036  -4368.445232  19494.336020   -471.867815
PG25 -20396.317899  15672.873856   5694.921639    496.158507
PG26   3102.421738  18327.584722 -18990.574065    149.024134
PG27  20685.112582  13100.665774 -11097.346463    -25.154653
PG28   4141.331727  25675.395047   5385.959580   -255.086378
PG29 -19098.259351   6165.913559 -17508.579845   -597.438895
PG30    494.474579 -24572.433840  -9568.842702   -386.399311
PG31  10247.511168  23639.268656  -5739.474372   -227.735736
PG32   1148.949641  15779.944930  21571.263696   -617.932713
PR01 -22204.924788  -2469.403004 -12321.629182     86.124451
PR02 -24515.614666   5080.679685   4760.787021    -23.027198
PR03 -12934.448178  10722.074154  19222.660351    100.646859
PR04   5175.014023  10058.136174  22896.665567    237.573343
PR05  20683.391208   4311.960150  14321.583661    131.879123
PR07  12294.013618 -10776.674302 -19552.112479     82.941056
PR08  -5517.211733 -10042.518561 -22722.814310     -4.015789
PR09  13929.193547 -11922.923822 -17671.593096    188.001061
PR11   2293.910943 -21902.165988  12867.759304     23.874571
PR12  -9070.757549  -6774.496312  22885.487171     40.426561
PR13 -13749.524175   9418.975688  19299.664089    -47.610953
PR14 -10690.081851  23021.516298   2667.205490     26.509839
PR15  -1434.153631  21196.493404 -14103.976962     79.563211
PR16   8824.192426   6945.006288 -22893.950521     25.807347
PR17  -1066.300026  14550.445776 -20911.411017     89.068827
PR18  10656.487177  21417.830835  -8916.800752    143.311255
PR19  16141.702813  18809.593817   6014.949214   -277.567598
PR20  13253.704507   2243.529810  21689.460112   -113.245660
PR21   1221.953039 -14417.366502  21007.156983   -102.937988
PR22 -10613.118488 -21842.777047   7806.950757    110.112588
PR24 -13413.934607   -853.134219 -21672.622222    -56.834882
PR25   1636.799684 -14889.657023  20652.957289    -37.646876
*  2024 05 22 15 15  0.00000000
PG02  17225.815170   4096.695457  20363.056933   -431.612991
PG03  20284.881267  -8769.346388  14487.392259    376.358615
PG04  25599.132610    534.969829  -7302.972968    366.730353
PG05 -14363.637674  -5752.452126 -21775.521667   -173.620589
PG06  -4509.163439 -25470.854165   5822.238107    259.763388
PG07   8884.485068 -15564.336864 -18931.824316   -134.332657
PG08  25822.730125   6355.398836  -3371.234061    191.741044
PG09  18165.480680  -9256.574026 -17130.949044    205.923705
PG10  -7634.381029  21929.010418  12798.482283    -27.689533
PG11 -12038.634159 -22529.334208  -7356.178017   -668.308467
PG12 -20664.101096   5773.845914  15339.556279   -507.579625
PG13 -20703.900920 -13946.704001  -9612.757414    652.429987
PG14  11145.602345 -22201.545473   9132.034542    407.019922
PG15 -26191.162243  -3703.811141  -3858.418109    161.820857
PG16  11660.085062  10029.852800 -22003.262084   -284.880832
PG17   5083.133823 -14411.438233  22149.365213    703.951157
PG18  -8308.971116  16303.989835 -19164.982608   -614.411179
PG19  -5843.671466 -16209.407786  20139.528192    485.667801
PG20  -7543.743754 -15442.457839 -20228.361306    375.658570
PG21  18115.091133  10228.242002  17508.085608    120.105699
PG22   5133.103019 -20829.180762  16266.669640    -17.143728
PG23 -16010.700873  21024.536037   1186.171036    231.773299
PG24 -17905.602865  -6481.416314  18257.541766   -471.870737
PG25 -20050.870973  14839.403211   8388.224810    496.159094
PG26   1672.892421  19855.012730 -17535.879165    149.018932
PG27  19329.510617  12988.723080 -13445.576157    -25.156160
PG28   3656.515499  25026.400848   8101.193233   -255.101218
PG29 -20857.964157   5487.554637 -15629.555913   -597.437566
PG30   1164.386211 -23454.829942 -11997.444628   -386.393924
PG31  10095.758195  24181.827212  -2932.443650   -227.735621
PG32  -1242.496902  15296.231578  21897.639726   -617.932200
PR01 -20531.768992  -2665.286086 -14908.146635     86.125316
PR02 -24871.826752   5300.677325   1564.348270    -23.027324
PR03 -15133.612489  11172.851116  17249.804282    100.647536
PR04   2367.820053  10462.790065  23175.615216    237.574867
PR05  18771.490080   4457.333681  16711.893143    131.879649
PR07  14555.022702 -11232.644730 -17659.448753     82.941783
PR08  -2709.384643 -10472.720432 -23036.255673     -4.016055
PR09  13133.099200  -9764.438151 -19514.700661    188.002972
PR11   2663.646652 -23273.837087  10083.566432     23.873442
PR12  -8116.967737  -9387.502691  22314.061436     40.426924
PR13 -12846.239344   7109.547237  20847.991387    -47.611316
PR14 -10400.725942  22573.105016   5808.386437     26.510072
PR15  -1888.996836  22712.726083 -11444.331342     79.562842
PR16   7885.126215   9572.883132 -22283.943818     25.807601
PR17  -2675.146006  12433.777935 -22102.385151     89.071855
PR18  10014.468660  20294.308110 -11811.282242    143.312908
PR19  16639.939757  19123.013025   2828.482301   -277.568887
PR20  14862.566917   4280.096639  20299.099641   -113.246260
PR21   2815.440527 -12275.086435  22179.738244   -102.940827
PR22 -10042.304896 -20844.052355  10747.671625    110.109852
PR24 -15085.653591  -2840.483313 -20366.654426    -56.836238
PR25   3149.001889 -12745.071813  21874.685100    -37.649294
EOF
